STARLINK-37052          
1 68179U 26050N   26086.16670139  .00069332  00000+0  35296-3 0  9999
2 68179  53.1586 194.1469 0001164 120.9987  96.6723 15.80812761  3255
STARLINK-37035          
1 68180U 26050P   26086.16670139  .00089792  00000+0  45523-3 0  9997
2 68180  53.1588 194.1383 0000864 105.7650 116.1738 15.80802380  3258
STARLINK-37032          
1 68181U 26050Q   26086.16670139  .00078779  00000+0  40034-3 0  9993
2 68181  53.1587 194.1295 0000850  91.9280 134.2881 15.80802148  3252
STARLINK-37082          
1 68182U 26050R   26086.16670139  .00072878  00000+0  37066-3 0  9999
2 68182  53.1588 194.1206 0001285  74.1883 156.2954 15.80814371  3257
STARLINK-37102          
1 68183U 26050S   26086.16670139  .00064678  00000+0  32977-3 0  9995
2 68183  53.1586 194.1118 0001043  77.1726 157.5868 15.80807388  3257
STARLINK-36964          
1 68184U 26050T   26086.16670139  .00032716  00000+0  16905-3 0  9997
2 68184  53.1586 194.1028 0000814  90.7589 148.2661 15.80823306  3257
STARLINK-37061          
1 68185U 26050U   26086.16670139  .00032805  00000+0  16951-3 0  9998
2 68185  53.1589 194.0941 0001057  83.8389 159.4615 15.80822039  3250
STARLINK-37079          
1 68186U 26050V   26086.16670139  .00043858  00000+0  22513-3 0  9990
2 68186  53.1587 194.0854 0001113 103.2922 144.2749 15.80823284  3258
STARLINK-37006          
1 68187U 26050W   26086.16670139 -.00023559  00000+0 -11648-3 0  9996
2 68187  53.1590 194.0766 0000784 101.3287 150.5786 15.80812721  3256
STARLINK-36340          
1 68188U 26050X   26086.16670139  .00026639  00000+0  13838-3 0  9990
2 68188  53.1588 194.0675 0001059 117.5467 138.5607 15.80827625  3086
STARLINK-36305          
1 68189U 26050Y   26086.16670139  .00086141  00000+0  43583-3 0  9995
2 68189  53.1590 194.0591 0001347 136.6431 123.7245 15.80862570  3149
STARLINK-37071          
1 68190U 26050Z   26086.16670139 -.00013304  00000+0 -64042-4 0  9994
2 68190  53.1589 194.0412 0001418 129.9953 138.9282 15.80845879  3258
